{
    "links": {
        "self": "http://www.neowsapp.com/rest/v1/neo/3511831?api_key=iIulBulltgU6a56xZRHN4H3l9WmuAYTsLGpBGhQ2"
    },
    "id": "3511831",
    "neo_reference_id": "3511831",
    "name": "(2010 EF43)",
    "designation": "2010 EF43",
    "nasa_jpl_url": "http://ssd.jpl.nasa.gov/sbdb.cgi?sstr=3511831",
    "absolute_magnitude_h": 26.4,
    "estimated_diameter": {
        "kilometers": {
            "estimated_diameter_min": 0.0139493823,
            "estimated_diameter_max": 0.0311917671
        },
        "meters": {
            "estimated_diameter_min": 13.9493822934,
            "estimated_diameter_max": 31.1917670523
        },
        "miles": {
            "estimated_diameter_min": 0.0086677416,
            "estimated_diameter_max": 0.0193816595
        },
        "feet": {
            "estimated_diameter_min": 45.7656914036,
            "estimated_diameter_max": 102.3351970157
        }
    },
    "is_potentially_hazardous_asteroid": false,
    "close_approach_data": [
        {
            "close_approach_date": "2010-03-18",
            "close_approach_date_full": "2010-Mar-18 11:31",
            "epoch_date_close_approach": 1268911860000,
            "relative_velocity": {
                "kilometers_per_second": "14.4775211961",
                "kilometers_per_hour": "52119.0763060727",
                "miles_per_hour": "32384.7671636261"
            },
            "miss_distance": {
                "astronomical": "0.0129078694",
                "lunar": "5.0211611966",
                "kilometers": "1930989.768478178",
                "miles": "1199861.4038197364"
            },
            "orbiting_body": "Earth"
        },
        {
            "close_approach_date": "2084-08-12",
            "close_approach_date_full": "2084-Aug-12 18:19",
            "epoch_date_close_approach": 3616942740000,
            "relative_velocity": {
                "kilometers_per_second": "25.0451646475",
                "kilometers_per_hour": "90162.5927309053",
                "miles_per_hour": "56023.5287999339"
            },
            "miss_distance": {
                "astronomical": "0.3723227525",
                "lunar": "144.8335507225",
                "kilometers": "55698690.726537175",
                "miles": "34609561.550776015"
            },
            "orbiting_body": "Earth"
        }
    ],
    "orbital_data": {
        "orbit_id": "8",
        "orbit_determination_date": "2017-04-06 08:58:11",
        "first_observation_date": "2010-03-13",
        "last_observation_date": "2010-03-18",
        "data_arc_in_days": 5,
        "observations_used": 53,
        "orbit_uncertainty": "8",
        "minimum_orbit_intersection": ".00540159",
        "jupiter_tisserand_invariant": "3.580",
        "epoch_osculation": "2455270.5",
        "eccentricity": ".5892451312640032",
        "semi_major_axis": "2.020651447464002",
        "inclination": "3.850859159803729",
        "ascending_node_longitude": "174.1656534113895",
        "orbital_period": "1049.14505094987",
        "perihelion_distance": ".8299924200642779",
        "perihelion_argument": "61.25159153240899",
        "aphelion_distance": "3.211310474863726",
        "perihelion_time": "2455313.576329992822",
        "mean_anomaly": "345.2189372829088",
        "mean_motion": ".3431365373873372",
        "equinox": "J2000",
        "orbit_class": {
            "orbit_class_type": "APO",
            "orbit_class_description": "Near-Earth asteroid orbits which cross the Earth’s orbit similar to that of 1862 Apollo",
            "orbit_class_range": "a (semi-major axis) > 1.0 AU; q (perihelion) < 1.017 AU"
        }
    },
    "is_sentry_object": false
}